{
    "links": {
        "self": "http://www.neowsapp.com/rest/v1/neo/3843079?api_key=iIulBulltgU6a56xZRHN4H3l9WmuAYTsLGpBGhQ2"
    },
    "id": "3843079",
    "neo_reference_id": "3843079",
    "name": "(2019 MD3)",
    "designation": "2019 MD3",
    "nasa_jpl_url": "http://ssd.jpl.nasa.gov/sbdb.cgi?sstr=3843079",
    "absolute_magnitude_h": 25.2,
    "estimated_diameter": {
        "kilometers": {
            "estimated_diameter_min": 0.0242412481,
            "estimated_diameter_max": 0.0542050786
        },
        "meters": {
            "estimated_diameter_min": 24.2412481101,
            "estimated_diameter_max": 54.2050786336
        },
        "miles": {
            "estimated_diameter_min": 0.0150628086,
            "estimated_diameter_max": 0.0336814639
        },
        "feet": {
            "estimated_diameter_min": 79.5316564495,
            "estimated_diameter_max": 177.8381901842
        }
    },
    "is_potentially_hazardous_asteroid": false,
    "close_approach_data": [
        {
            "close_approach_date": "2019-07-04",
            "close_approach_date_full": "2019-Jul-04 10:26",
            "epoch_date_close_approach": 1562235960000,
            "relative_velocity": {
                "kilometers_per_second": "7.6145400093",
                "kilometers_per_hour": "27412.3440334313",
                "miles_per_hour": "17032.9645467729"
            },
            "miss_distance": {
                "astronomical": "0.0803542177",
                "lunar": "31.2577906853",
                "kilometers": "12020819.813436299",
                "miles": "7469391.0718029662"
            },
            "orbiting_body": "Earth"
        }
    ],
    "orbital_data": {
        "orbit_id": "1",
        "orbit_determination_date": "2019-07-02 05:51:13",
        "first_observation_date": "2019-06-30",
        "last_observation_date": "2019-07-02",
        "data_arc_in_days": 2,
        "observations_used": 9,
        "orbit_uncertainty": "9",
        "minimum_orbit_intersection": ".0717365",
        "jupiter_tisserand_invariant": "3.501",
        "epoch_osculation": "2458665.5",
        "eccentricity": ".5119739869270935",
        "semi_major_axis": "2.164352208233494",
        "inclination": "8.301773381520238",
        "ascending_node_longitude": "258.2591147468057",
        "orbital_period": "1163.02842764765",
        "perihelion_distance": "1.056260179069733",
        "perihelion_argument": "34.56631752613146",
        "aphelion_distance": "3.272444237397254",
        "perihelion_time": "2458680.096470646046",
        "mean_anomaly": "355.4818564123967",
        "mean_motion": ".3095367159065394",
        "equinox": "J2000",
        "orbit_class": {
            "orbit_class_type": "AMO",
            "orbit_class_description": "Near-Earth asteroid orbits similar to that of 1221 Amor",
            "orbit_class_range": "1.017 AU < q (perihelion) < 1.3 AU"
        }
    },
    "is_sentry_object": false
}